STARLINK-1729_new
1 16583C 20070BD  21326.15154678  .00004107  00000-0  27518-3 0  3268
2 16583  53.0530  18.0723 0001227  56.9237 327.6366 15.06392652    12
STARLINK-1729_old
1 26583C 20070BD  21325.18072625  .00002112  00000-0  14153-3 0  3255
2 26583  53.0529  22.4307 0001158  61.0298  95.8733 15.06381707    15
